{"type": "FeatureCollection", "features": [{"type": "Feature", "properties": {"norad_id": 2807, "name": "OPS 7218 (TRANSIT 16)", "group": "nnss", "lat": 82.0120771636434, "lon": 171.802018250595, "alt_km": 1047.6039028485657, "timestamp": "2025-12-09T04:51:47.761746+00:00", "meta": {"OBJECT_NAME": "OPS 7218 (TRANSIT 16)", "OBJECT_ID": "1967-048A", "EPOCH": "2025-12-08T18:34:18.315840", "MEAN_MOTION": 13.50721211, "ECCENTRICITY": 0.0021783, "INCLINATION": 89.6731, "RA_OF_ASC_NODE": 354.1478, "ARG_OF_PERICENTER": 124.7068, "MEAN_ANOMALY": 49.4634, "EPHEMERIS_TYPE": 0, "CLASSIFICATION_TYPE": "U", "NORAD_CAT_ID": 2807, "ELEMENT_SET_NO": 999, "REV_AT_EPOCH": 88222, "BSTAR": 0.00024295, "MEAN_MOTION_DOT": 1.67e-06, "MEAN_MOTION_DDOT": 0}, "tle": {"line1": "1 02807U 67048A   25342.77382310  .00000167  00000+0  24295-3 0  9997", "line2": "2 02807  89.6731 354.1478 0021783 124.7068  49.4634 13.50721211882229"}}, "geometry": {"type": "Point", "coordinates": [171.802018250595, 82.0120771636434]}}, {"type": "Feature", "properties": {"norad_id": 2965, "name": "OPS 4947 (TRANSIT 17)", "group": "nnss", "lat": 52.56920966676027, "lon": -156.2752051879098, "alt_km": 1070.5604481547025, "timestamp": "2025-12-09T04:51:47.761769+00:00", "meta": {"OBJECT_NAME": "OPS 4947 (TRANSIT 17)", "OBJECT_ID": "1967-092A", "EPOCH": "2025-12-08T16:23:38.512896", "MEAN_MOTION": 13.53452092, "ECCENTRICITY": 0.004596, "INCLINATION": 89.2499, "RA_OF_ASC_NODE": 24.745, "ARG_OF_PERICENTER": 246.6699, "MEAN_ANOMALY": 231.189, "EPHEMERIS_TYPE": 0, "CLASSIFICATION_TYPE": "U", "NORAD_CAT_ID": 2965, "ELEMENT_SET_NO": 999, "REV_AT_EPOCH": 87042, "BSTAR": 0.00027139, "MEAN_MOTION_DOT": 1.94e-06, "MEAN_MOTION_DDOT": 0}, "tle": {"line1": "1 02965U 67092A   25342.68308464  .00000194  00000+0  27139-3 0  9999", "line2": "2 02965  89.2499  24.7450 0045960 246.6699 231.1890 13.53452092870422"}}, "geometry": {"type": "Point", "coordinates": [-156.2752051879098, 52.56920966676027]}}, {"type": "Feature", "properties": {"norad_id": 3133, "name": "OPS 7034 (TRANSIT 18)", "group": "nnss", "lat": -58.325525629700806, "lon": -86.32647615454259, "alt_km": 1102.6650745521974, "timestamp": "2025-12-09T04:51:47.761783+00:00", "meta": {"OBJECT_NAME": "OPS 7034 (TRANSIT 18)", "OBJECT_ID": "1968-012A", "EPOCH": "2025-12-08T20:34:01.223904", "MEAN_MOTION": 13.51564436, "ECCENTRICITY": 0.0073477, "INCLINATION": 90.0276, "RA_OF_ASC_NODE": 273.6278, "ARG_OF_PERICENTER": 180.4121, "MEAN_ANOMALY": 239.6766, "EPHEMERIS_TYPE": 0, "CLASSIFICATION_TYPE": "U", "NORAD_CAT_ID": 3133, "ELEMENT_SET_NO": 999, "REV_AT_EPOCH": 56866, "BSTAR": 0.00029763, "MEAN_MOTION_DOT": 2.07e-06, "MEAN_MOTION_DDOT": 0}, "tle": {"line1": "1 03133U 68012A   25342.85695861  .00000207  00000+0  29763-3 0  9999", "line2": "2 03133  90.0276 273.6278 0073477 180.4121 239.6766 13.51564436568664"}}, "geometry": {"type": "Point", "coordinates": [-86.32647615454259, -58.325525629700806]}}, {"type": "Feature", "properties": {"norad_id": 4507, "name": "NNSS 19 (TRANSIT 19)", "group": "nnss", "lat": -85.26505291555794, "lon": -125.39979632988367, "alt_km": 963.1447529398229, "timestamp": "2025-12-09T04:51:47.761795+00:00", "meta": {"OBJECT_NAME": "NNSS 19 (TRANSIT 19)", "OBJECT_ID": "1970-067A", "EPOCH": "2025-12-08T18:36:34.350048", "MEAN_MOTION": 13.51313811, "ECCENTRICITY": 0.0170791, "INCLINATION": 90.0057, "RA_OF_ASC_NODE": 234.5311, "ARG_OF_PERICENTER": 304.9623, "MEAN_ANOMALY": 53.559, "EPHEMERIS_TYPE": 0, "CLASSIFICATION_TYPE": "U", "NORAD_CAT_ID": 4507, "ELEMENT_SET_NO": 999, "REV_AT_EPOCH": 72168, "BSTAR": 0.00034752, "MEAN_MOTION_DOT": 2.55e-06, "MEAN_MOTION_DDOT": 0}, "tle": {"line1": "1 04507U 70067A   25342.77539757  .00000255  00000+0  34752-3 0  9997", "line2": "2 04507  90.0057 234.5311 0170791 304.9623  53.5590 13.51313811721688"}}, "geometry": {"type": "Point", "coordinates": [-125.39979632988367, -85.26505291555794]}}, {"type": "Feature", "properties": {"norad_id": 6909, "name": "NNSS 20 (TRANSIT 20)", "group": "nnss", "lat": 87.35373588700277, "lon": 71.99024770548253, "alt_km": 871.7411147912117, "timestamp": "2025-12-09T04:51:47.761806+00:00", "meta": {"OBJECT_NAME": "NNSS 20 (TRANSIT 20)", "OBJECT_ID": "1973-081A", "EPOCH": "2025-12-08T19:40:02.097408", "MEAN_MOTION": 13.71431673, "ECCENTRICITY": 0.0156606, "INCLINATION": 89.8561, "RA_OF_ASC_NODE": 255.1129, "ARG_OF_PERICENTER": 89.9209, "MEAN_ANOMALY": 271.9898, "EPHEMERIS_TYPE": 0, "CLASSIFICATION_TYPE": "U", "NORAD_CAT_ID": 6909, "ELEMENT_SET_NO": 999, "REV_AT_EPOCH": 80307, "BSTAR": 0.00038172, "MEAN_MOTION_DOT": 3.86e-06, "MEAN_MOTION_DDOT": 0}, "tle": {"line1": "1 06909U 73081A   25342.81946872  .00000386  00000+0  38172-3 0  9994", "line2": "2 06909  89.8561 255.1129 0156606  89.9209 271.9898 13.71431673803077"}}, "geometry": {"type": "Point", "coordinates": [71.99024770548253, 87.35373588700277]}}, {"type": "Feature", "properties": {"norad_id": 10457, "name": "TRANSAT", "group": "nnss", "lat": -48.998716389394545, "lon": 78.31716937027659, "alt_km": 1089.7721392483827, "timestamp": "2025-12-09T04:51:47.761816+00:00", "meta": {"OBJECT_NAME": "TRANSAT", "OBJECT_ID": "1977-106A", "EPOCH": "2025-12-08T20:48:25.255008", "MEAN_MOTION": 13.48942788, "ECCENTRICITY": 0.0025026, "INCLINATION": 89.6481, "RA_OF_ASC_NODE": 78.7341, "ARG_OF_PERICENTER": 200.8661, "MEAN_ANOMALY": 280.8023, "EPHEMERIS_TYPE": 0, "CLASSIFICATION_TYPE": "U", "NORAD_CAT_ID": 10457, "ELEMENT_SET_NO": 999, "REV_AT_EPOCH": 36691, "BSTAR": 0.00022885, "MEAN_MOTION_DOT": 1.54e-06, "MEAN_MOTION_DDOT": 0}, "tle": {"line1": "1 10457U 77106A   25342.86695897  .00000154  00000+0  22885-3 0  9999", "line2": "2 10457  89.6481  78.7341 0025026 200.8661 280.8023 13.48942788366915"}}, "geometry": {"type": "Point", "coordinates": [78.31716937027659, -48.998716389394545]}}, {"type": "Feature", "properties": {"norad_id": 12458, "name": "NOVA 1", "group": "nnss", "lat": 1.0139151155490091, "lon": -88.56746034436257, "alt_km": 1170.1977901715345, "timestamp": "2025-12-09T04:51:47.761827+00:00", "meta": {"OBJECT_NAME": "NOVA 1", "OBJECT_ID": "1981-044A", "EPOCH": "2025-12-08T19:29:20.064192", "MEAN_MOTION": 13.23277917, "ECCENTRICITY": 0.0015796, "INCLINATION": 89.8524, "RA_OF_ASC_NODE": 91.4407, "ARG_OF_PERICENTER": 113.6385, "MEAN_ANOMALY": 5.4134, "EPHEMERIS_TYPE": 0, "CLASSIFICATION_TYPE": "U", "NORAD_CAT_ID": 12458, "ELEMENT_SET_NO": 999, "REV_AT_EPOCH": 15134, "BSTAR": 0.00027353, "MEAN_MOTION_DOT": 1.25e-06, "MEAN_MOTION_DDOT": 0}, "tle": {"line1": "1 12458U 81044A   25342.81203778  .00000125  00000+0  27353-3 0  9999", "line2": "2 12458  89.8524  91.4407 0015796 113.6385   5.4134 13.23277917151341"}}, "geometry": {"type": "Point", "coordinates": [-88.56746034436257, 1.0139151155490091]}}, {"type": "Feature", "properties": {"norad_id": 15362, "name": "NOVA 3", "group": "nnss", "lat": 54.6418080926772, "lon": 80.32061687164989, "alt_km": 1161.0171692782196, "timestamp": "2025-12-09T04:51:47.761838+00:00", "meta": {"OBJECT_NAME": "NOVA 3", "OBJECT_ID": "1984-110A", "EPOCH": "2025-12-08T18:18:02.464128", "MEAN_MOTION": 13.23043855, "ECCENTRICITY": 0.0030797, "INCLINATION": 90.1223, "RA_OF_ASC_NODE": 80.4879, "ARG_OF_PERICENTER": 343.1969, "MEAN_ANOMALY": 136.1684, "EPHEMERIS_TYPE": 0, "CLASSIFICATION_TYPE": "U", "NORAD_CAT_ID": 15362, "ELEMENT_SET_NO": 999, "REV_AT_EPOCH": 98646, "BSTAR": 0.00022397, "MEAN_MOTION_DOT": 1.03e-06, "MEAN_MOTION_DDOT": 0}, "tle": {"line1": "1 15362U 84110A   25342.76252852  .00000103  00000+0  22397-3 0  9993", "line2": "2 15362  90.1223  80.4879 0030797 343.1969 136.1684 13.23043855986469"}}, "geometry": {"type": "Point", "coordinates": [80.32061687164989, 54.6418080926772]}}, {"type": "Feature", "properties": {"norad_id": 15935, "name": "OSCAR 30", "group": "nnss", "lat": -32.27992707769526, "lon": 99.89342824898638, "alt_km": 1203.2137963063433, "timestamp": "2025-12-09T04:51:47.761848+00:00", "meta": {"OBJECT_NAME": "OSCAR 30", "OBJECT_ID": "1985-066A", "EPOCH": "2025-12-08T20:34:52.400352", "MEAN_MOTION": 13.36077406, "ECCENTRICITY": 0.0169412, "INCLINATION": 90.1649, "RA_OF_ASC_NODE": 99.7836, "ARG_OF_PERICENTER": 94.7382, "MEAN_ANOMALY": 15.8226, "EPHEMERIS_TYPE": 0, "CLASSIFICATION_TYPE": "U", "NORAD_CAT_ID": 15935, "ELEMENT_SET_NO": 999, "REV_AT_EPOCH": 96401, "BSTAR": 0.00028404, "MEAN_MOTION_DOT": 1.68e-06, "MEAN_MOTION_DDOT": 0}, "tle": {"line1": "1 15935U 85066A   25342.85755093  .00000168  00000+0  28404-3 0  9991", "line2": "2 15935  90.1649  99.7836 0169412  94.7382  15.8226 13.36077406964013"}}, "geometry": {"type": "Point", "coordinates": [99.89342824898638, -32.27992707769526]}}, {"type": "Feature", "properties": {"norad_id": 15936, "name": "OSCAR 24", "group": "nnss", "lat": 44.88920007191424, "lon": 92.06461568022941, "alt_km": 1046.256220678214, "timestamp": "2025-12-09T04:51:47.761859+00:00", "meta": {"OBJECT_NAME": "OSCAR 24", "OBJECT_ID": "1985-066B", "EPOCH": "2025-12-08T20:13:44.976288", "MEAN_MOTION": 13.35935027, "ECCENTRICITY": 0.0170458, "INCLINATION": 90.1788, "RA_OF_ASC_NODE": 92.2365, "ARG_OF_PERICENTER": 101.2137, "MEAN_ANOMALY": 16.1688, "EPHEMERIS_TYPE": 0, "CLASSIFICATION_TYPE": "U", "NORAD_CAT_ID": 15936, "ELEMENT_SET_NO": 999, "REV_AT_EPOCH": 96591, "BSTAR": 0.00026157, "MEAN_MOTION_DOT": 1.56e-06, "MEAN_MOTION_DDOT": 0}, "tle": {"line1": "1 15936U 85066B   25342.84288167  .00000156  00000+0  26157-3 0  9994", "line2": "2 15936  90.1788  92.2365 0170458 101.2137  16.1688 13.35935027965914"}}, "geometry": {"type": "Point", "coordinates": [92.06461568022941, 44.88920007191424]}}]}